STARLINK-37071          
1 68190U 26050Z   26088.14251976  .00240387  00000+0  11845-2 0  9990
2 68190  53.1594 184.1406 0000670  48.2796 311.8284 15.80934673  3552
STARLINK-37091          
1 68191U 26050AA  26088.14176854  .00265851  00000+0  13049-2 0  9993
2 68191  53.1591 184.1348 0000857  30.1729 329.9343 15.80948179  3550
STARLINK-37098          
1 68192U 26050AB  26088.14101765  .00311784  00000+0  15247-2 0  9992
2 68192  53.1594 184.1300 0000881  57.2615 302.8492 15.80902760  3554
STARLINK-37090          
1 68193U 26050AC  26088.13952058  .00705845  00000+0  32679-2 0  9994
2 68193  53.1594 184.1193 0001338  10.9491 349.1560 15.81057870  3555
STARLINK-37093          
1 68194U 26050AD  26088.14326873  .00214608  00000+0  10616-2 0  9995
2 68194  53.1594 184.1452 0001241  22.5888 337.5189 15.80922253  3559
STARLINK-37058          
1 68195U 26050AE  26088.14026936  .00215565  00000+0  10663-2 0  9998
2 68195  53.1594 184.1241 0000939  44.9710 315.1389 15.80921275  1994
YAOGAN-50 02            
1 68196U 26051A   26088.21841935  .00000267  00000+0  72652-4 0  9991
2 68196 141.9870 301.4020 0000775 261.9564  98.1068 13.83266368  1913
CZ-6A R/B               
1 68197U 26051B   26087.84552988  .00000993  00000+0  12212-3 0  9998
2 68197 142.0319 306.5718 0186647 188.7429 171.0014 14.56370621  1958
2026-052A               
1 68198U 26052A   26085.62264051  .00000448  00000+0  31529-4 0  9993
2 68198  97.5376 161.7059 0012977 225.7685 134.2480 15.09879016  1583
YUXING-3 06             
1 68199U 26052B   26087.94082774  .00006047  00000+0  37447-3 0  9996
2 68199  97.5376 163.9889 0012039 218.8424 141.1942 15.10092569  1933
2026-052C               
1 68200U 26052C   26088.20474517  .00005468  00000+0  33789-3 0  9990
2 68200  97.5374 164.2518 0011730 220.4149 139.6210 15.10220805  1966
2026-052D               
1 68201U 26052D   26088.20327713  .00008133  00000+0  49775-3 0  9990
2 68201  97.5371 164.2502 0010902 216.8732 143.1748 15.10427345  1979
2026-052E               
1 68202U 26052E   26088.20325669  .00008050  00000+0  49272-3 0  9999
2 68202  97.5371 164.2530 0010705 221.1435 138.8988 15.10427336  1978
2026-052F               
1 68203U 26052F   26088.20108596  .00008131  00000+0  49426-3 0  9999
2 68203  97.5367 164.2586 0010053 212.6993 147.3615 15.10682336  1970
2026-052G               
1 68204U 26052G   26088.20066550  .00008596  00000+0  52158-3 0  9994
2 68204  97.5377 164.2549 0009637 215.5789 144.4799 15.10731445  1979
KZ-11 R/B               
1 68205U 26052H   26088.17727345  .00029340  19505-5  43901-3 0  9999
2 68205  97.3417 163.4748 0545993 330.8579  26.3141 14.67253127  1913
2026-052J               
1 68206U 26052J   26088.17383109  .00079793  28049-5  11665-2 0  9997
2 68206  97.3418 163.4783 0542993 330.9036  26.2884 14.68104586  1918
