[{"OBJECT_NAME":"STARLINK-37071","OBJECT_ID":"2026-050Z","EPOCH":"2026-03-29T03:25:13.707264","MEAN_MOTION":15.80934673,"ECCENTRICITY":6.7e-5,"INCLINATION":53.1594,"RA_OF_ASC_NODE":184.1406,"ARG_OF_PERICENTER":48.2796,"MEAN_ANOMALY":311.8284,"EPHEMERIS_TYPE":0,"CLASSIFICATION_TYPE":"U","NORAD_CAT_ID":68190,"ELEMENT_SET_NO":999,"REV_AT_EPOCH":355,"BSTAR":0.0011845,"MEAN_MOTION_DOT":0.00240387,"MEAN_MOTION_DDOT":0},{"OBJECT_NAME":"STARLINK-37091","OBJECT_ID":"2026-050AA","EPOCH":"2026-03-29T03:24:08.801856","MEAN_MOTION":15.80948179,"ECCENTRICITY":8.57e-5,"INCLINATION":53.1591,"RA_OF_ASC_NODE":184.1348,"ARG_OF_PERICENTER":30.1729,"MEAN_ANOMALY":329.9343,"EPHEMERIS_TYPE":0,"CLASSIFICATION_TYPE":"U","NORAD_CAT_ID":68191,"ELEMENT_SET_NO":999,"REV_AT_EPOCH":355,"BSTAR":0.0013049,"MEAN_MOTION_DOT":0.00265851,"MEAN_MOTION_DDOT":0},{"OBJECT_NAME":"STARLINK-37098","OBJECT_ID":"2026-050AB","EPOCH":"2026-03-29T03:23:03.924960","MEAN_MOTION":15.8090276,"ECCENTRICITY":8.81e-5,"INCLINATION":53.1594,"RA_OF_ASC_NODE":184.13,"ARG_OF_PERICENTER":57.2615,"MEAN_ANOMALY":302.8492,"EPHEMERIS_TYPE":0,"CLASSIFICATION_TYPE":"U","NORAD_CAT_ID":68192,"ELEMENT_SET_NO":999,"REV_AT_EPOCH":355,"BSTAR":0.0015247,"MEAN_MOTION_DOT":0.00311784,"MEAN_MOTION_DDOT":0},{"OBJECT_NAME":"STARLINK-37090","OBJECT_ID":"2026-050AC","EPOCH":"2026-03-29T03:20:54.578112","MEAN_MOTION":15.8105787,"ECCENTRICITY":0.0001338,"INCLINATION":53.1594,"RA_OF_ASC_NODE":184.1193,"ARG_OF_PERICENTER":10.9491,"MEAN_ANOMALY":349.156,"EPHEMERIS_TYPE":0,"CLASSIFICATION_TYPE":"U","NORAD_CAT_ID":68193,"ELEMENT_SET_NO":999,"REV_AT_EPOCH":355,"BSTAR":0.0032679,"MEAN_MOTION_DOT":0.00705845,"MEAN_MOTION_DDOT":0},{"OBJECT_NAME":"STARLINK-37093","OBJECT_ID":"2026-050AD","EPOCH":"2026-03-29T03:26:18.418272","MEAN_MOTION":15.80922253,"ECCENTRICITY":0.0001241,"INCLINATION":53.1594,"RA_OF_ASC_NODE":184.1452,"ARG_OF_PERICENTER":22.5888,"MEAN_ANOMALY":337.5189,"EPHEMERIS_TYPE":0,"CLASSIFICATION_TYPE":"U","NORAD_CAT_ID":68194,"ELEMENT_SET_NO":999,"REV_AT_EPOCH":355,"BSTAR":0.0010616,"MEAN_MOTION_DOT":0.00214608,"MEAN_MOTION_DDOT":0},{"OBJECT_NAME":"STARLINK-37058","OBJECT_ID":"2026-050AE","EPOCH":"2026-03-29T03:21:59.272704","MEAN_MOTION":15.80921275,"ECCENTRICITY":9.39e-5,"INCLINATION":53.1594,"RA_OF_ASC_NODE":184.1241,"ARG_OF_PERICENTER":44.971,"MEAN_ANOMALY":315.1389,"EPHEMERIS_TYPE":0,"CLASSIFICATION_TYPE":"U","NORAD_CAT_ID":68195,"ELEMENT_SET_NO":999,"REV_AT_EPOCH":199,"BSTAR":0.0010663,"MEAN_MOTION_DOT":0.00215565,"MEAN_MOTION_DDOT":0},{"OBJECT_NAME":"YAOGAN-50 02","OBJECT_ID":"2026-051A","EPOCH":"2026-03-29T05:14:31.431840","MEAN_MOTION":13.83266368,"ECCENTRICITY":7.75e-5,"INCLINATION":141.987,"RA_OF_ASC_NODE":301.402,"ARG_OF_PERICENTER":261.9564,"MEAN_ANOMALY":98.1068,"EPHEMERIS_TYPE":0,"CLASSIFICATION_TYPE":"U","NORAD_CAT_ID":68196,"ELEMENT_SET_NO":999,"REV_AT_EPOCH":191,"BSTAR":7.2652e-5,"MEAN_MOTION_DOT":2.67e-6,"MEAN_MOTION_DDOT":0},{"OBJECT_NAME":"CZ-6A R/B","OBJECT_ID":"2026-051B","EPOCH":"2026-03-28T20:17:33.781632","MEAN_MOTION":14.56370621,"ECCENTRICITY":0.01866472,"INCLINATION":142.0319,"RA_OF_ASC_NODE":306.5718,"ARG_OF_PERICENTER":188.7429,"MEAN_ANOMALY":171.0014,"EPHEMERIS_TYPE":0,"CLASSIFICATION_TYPE":"U","NORAD_CAT_ID":68197,"ELEMENT_SET_NO":999,"REV_AT_EPOCH":195,"BSTAR":0.00012212216,"MEAN_MOTION_DOT":9.93e-6,"MEAN_MOTION_DDOT":0},{"OBJECT_NAME":"2026-052A","OBJECT_ID":"2026-052A","EPOCH":"2026-03-26T14:56:36.140064","MEAN_MOTION":15.09879016,"ECCENTRICITY":0.00129773,"INCLINATION":97.5376,"RA_OF_ASC_NODE":161.7059,"ARG_OF_PERICENTER":225.7685,"MEAN_ANOMALY":134.248,"EPHEMERIS_TYPE":0,"CLASSIFICATION_TYPE":"U","NORAD_CAT_ID":68198,"ELEMENT_SET_NO":999,"REV_AT_EPOCH":158,"BSTAR":3.152876e-5,"MEAN_MOTION_DOT":4.48e-6,"MEAN_MOTION_DDOT":0},{"OBJECT_NAME":"YUXING-3 06","OBJECT_ID":"2026-052B","EPOCH":"2026-03-28T22:34:47.516736","MEAN_MOTION":15.10092569,"ECCENTRICITY":0.0012039,"INCLINATION":97.5376,"RA_OF_ASC_NODE":163.9889,"ARG_OF_PERICENTER":218.8424,"MEAN_ANOMALY":141.1942,"EPHEMERIS_TYPE":0,"CLASSIFICATION_TYPE":"U","NORAD_CAT_ID":68199,"ELEMENT_SET_NO":999,"REV_AT_EPOCH":193,"BSTAR":0.00037446882,"MEAN_MOTION_DOT":6.047e-5,"MEAN_MOTION_DDOT":0},{"OBJECT_NAME":"2026-052C","OBJECT_ID":"2026-052C","EPOCH":"2026-03-29T04:54:49.982688","MEAN_MOTION":15.10220805,"ECCENTRICITY":0.001173,"INCLINATION":97.5374,"RA_OF_ASC_NODE":164.2518,"ARG_OF_PERICENTER":220.4149,"MEAN_ANOMALY":139.621,"EPHEMERIS_TYPE":0,"CLASSIFICATION_TYPE":"U","NORAD_CAT_ID":68200,"ELEMENT_SET_NO":999,"REV_AT_EPOCH":196,"BSTAR":0.00033789,"MEAN_MOTION_DOT":5.468e-5,"MEAN_MOTION_DDOT":0},{"OBJECT_NAME":"2026-052D","OBJECT_ID":"2026-052D","EPOCH":"2026-03-29T04:52:43.144032","MEAN_MOTION":15.10427345,"ECCENTRICITY":0.0010902,"INCLINATION":97.5371,"RA_OF_ASC_NODE":164.2502,"ARG_OF_PERICENTER":216.8732,"MEAN_ANOMALY":143.1748,"EPHEMERIS_TYPE":0,"CLASSIFICATION_TYPE":"U","NORAD_CAT_ID":68201,"ELEMENT_SET_NO":999,"REV_AT_EPOCH":197,"BSTAR":0.00049775,"MEAN_MOTION_DOT":8.133e-5,"MEAN_MOTION_DDOT":0},{"OBJECT_NAME":"2026-052E","OBJECT_ID":"2026-052E","EPOCH":"2026-03-29T04:52:41.378016","MEAN_MOTION":15.10427336,"ECCENTRICITY":0.0010705,"INCLINATION":97.5371,"RA_OF_ASC_NODE":164.253,"ARG_OF_PERICENTER":221.1435,"MEAN_ANOMALY":138.8988,"EPHEMERIS_TYPE":0,"CLASSIFICATION_TYPE":"U","NORAD_CAT_ID":68202,"ELEMENT_SET_NO":999,"REV_AT_EPOCH":197,"BSTAR":0.00049272,"MEAN_MOTION_DOT":8.05e-5,"MEAN_MOTION_DDOT":0},{"OBJECT_NAME":"2026-052F","OBJECT_ID":"2026-052F","EPOCH":"2026-03-29T04:49:33.826944","MEAN_MOTION":15.10682336,"ECCENTRICITY":0.0010053,"INCLINATION":97.5367,"RA_OF_ASC_NODE":164.2586,"ARG_OF_PERICENTER":212.6993,"MEAN_ANOMALY":147.3615,"EPHEMERIS_TYPE":0,"CLASSIFICATION_TYPE":"U","NORAD_CAT_ID":68203,"ELEMENT_SET_NO":999,"REV_AT_EPOCH":197,"BSTAR":0.00049426,"MEAN_MOTION_DOT":8.131e-5,"MEAN_MOTION_DDOT":0},{"OBJECT_NAME":"2026-052G","OBJECT_ID":"2026-052G","EPOCH":"2026-03-29T04:48:57.499200","MEAN_MOTION":15.10731445,"ECCENTRICITY":0.0009637,"INCLINATION":97.5377,"RA_OF_ASC_NODE":164.2549,"ARG_OF_PERICENTER":215.5789,"MEAN_ANOMALY":144.4799,"EPHEMERIS_TYPE":0,"CLASSIFICATION_TYPE":"U","NORAD_CAT_ID":68204,"ELEMENT_SET_NO":999,"REV_AT_EPOCH":197,"BSTAR":0.00052158,"MEAN_MOTION_DOT":8.596e-5,"MEAN_MOTION_DDOT":0},{"OBJECT_NAME":"KZ-11 R/B","OBJECT_ID":"2026-052H","EPOCH":"2026-03-29T04:15:16.426080","MEAN_MOTION":14.67253127,"ECCENTRICITY":0.0545993,"INCLINATION":97.3417,"RA_OF_ASC_NODE":163.4748,"ARG_OF_PERICENTER":330.8579,"MEAN_ANOMALY":26.3141,"EPHEMERIS_TYPE":0,"CLASSIFICATION_TYPE":"U","NORAD_CAT_ID":68205,"ELEMENT_SET_NO":999,"REV_AT_EPOCH":191,"BSTAR":0.00043901,"MEAN_MOTION_DOT":0.0002934,"MEAN_MOTION_DDOT":1.9505e-6},{"OBJECT_NAME":"2026-052J","OBJECT_ID":"2026-052J","EPOCH":"2026-03-29T04:10:19.006176","MEAN_MOTION":14.68104586,"ECCENTRICITY":0.0542993,"INCLINATION":97.3418,"RA_OF_ASC_NODE":163.4783,"ARG_OF_PERICENTER":330.9036,"MEAN_ANOMALY":26.2884,"EPHEMERIS_TYPE":0,"CLASSIFICATION_TYPE":"U","NORAD_CAT_ID":68206,"ELEMENT_SET_NO":999,"REV_AT_EPOCH":191,"BSTAR":0.0011665,"MEAN_MOTION_DOT":0.00079793,"MEAN_MOTION_DDOT":2.8049e-6}]
